ONEWEB-0249             
1 48967U 21060A   26060.51719750  .00000169  00000+0  40941-3 0  9998
2 48967  87.8999 250.1988 0001754  96.8608 263.2723 13.16593300225446
ONEWEB-0250             
1 48968U 21060B   26060.46382879  .00000127  00000+0  25881-3 0  9991
2 48968  87.8997 248.3161 0002701  91.6750 268.4696 13.25827068225943
ONEWEB-0252             
1 48970U 21060D   26060.47206764 -.00000024  00000+0 -96757-4 0  9992
2 48970  87.8999 250.2009 0001394  96.0741 264.0549 13.16593331225488
ONEWEB-0253             
1 48971U 21060E   26060.46098477  .00000007  00000+0 -15175-4 0  9997
2 48971  87.8999 250.2084 0001640  99.5868 260.5448 13.16593289225418
ONEWEB-0254             
1 48972U 21060F   26060.47048401  .00000036  00000+0  61816-4 0  9995
2 48972  87.9003 250.2011 0001865 103.3798 256.7541 13.16593004225417
ONEWEB-0255             
1 48973U 21060G   26060.50849042  .00000138  00000+0  32755-3 0  9992
2 48973  87.8998 250.2030 0001728 100.9377 259.1948 13.16593369225495
ONEWEB-0256             
1 48974U 21060H   26060.45861403  .00000054  00000+0  10885-3 0  9999
2 48974  87.9001 250.2199 0001516  91.1570 268.9734 13.16593202225452
ONEWEB-0257             
1 48975U 21060J   26060.49106596  .00000059  00000+0  12201-3 0  9998
2 48975  87.8998 250.1974 0001600  99.9621 260.1690 13.16592949225412
ONEWEB-0258             
1 48976U 21060K   26060.49265395  .00000041  00000+0  73467-4 0  9995
2 48976  87.8997 250.2085 0001707  93.4479 266.6847 13.16592770225422
ONEWEB-0259             
1 48977U 21060L   26060.48631434 -.00000014  00000+0 -69420-4 0  9992
2 48977  87.9001 250.2085 0001727  98.7433 261.3893 13.16593085225456
ONEWEB-0260             
1 48978U 21060M   26060.47760639  .00000026  00000+0  34401-4 0  9994
2 48978  87.8999 250.2163 0001191  90.7011 269.4256 13.16593586225434
ONEWEB-0261             
1 48979U 21060N   26060.52347394 -.00002362  00000+0 -62113-2 0  9996
2 48979  87.8990 250.2079 0001683 109.0932 251.0381 13.16609548225492
ONEWEB-0262             
1 48980U 21060P   26060.50373600  .00000118  00000+0  27551-3 0  9998
2 48980  87.8999 250.1932 0001910  98.3508 261.7839 13.16592703225458
ONEWEB-0263             
1 48981U 21060Q   26060.45939578  .00000026  00000+0  33454-4 0  9993
2 48981  87.9001 250.2134 0001712 107.1803 252.9515 13.16592954225413
ONEWEB-0264             
1 48982U 21060R   26060.49659690  .00000160  00000+0  38369-3 0  9990
2 48982  87.8997 250.2099 0001410 100.3623 259.7667 13.16595610225423
ONEWEB-0266             
1 48984U 21060T   26060.51797243  .00000134  00000+0  31815-3 0  9992
2 48984  87.9001 250.1950 0001777  92.3837 267.7497 13.16596080225411
ONEWEB-0267             
1 48985U 21060U   26060.45306196  .00000076  00000+0  16502-3 0  9990
2 48985  87.9001 250.2045 0001585 101.6270 258.5039 13.16592991225417
ONEWEB-0268             
1 48986U 21060V   26060.49740249 -.00000006  00000+0 -50186-4 0  9998
2 48986  87.8998 250.2054 0001548  94.2144 265.9164 13.16592854225686
ONEWEB-0269             
1 48987U 21060W   26060.47839976  .00000044  00000+0  81279-4 0  9990
2 48987  87.8988 250.2237 0001498  87.7552 272.3751 13.16592759225456
ONEWEB-0270             
1 48988U 21060X   26060.49581962  .00000003  00000+0 -25942-4 0  9993
2 48988  87.9000 250.2075 0001851 105.5124 254.6211 13.16593081225497
ONEWEB-0271             
1 48989U 21060Y   26060.48315838  .00000042  00000+0  75463-4 0  9995
2 48989  87.8999 250.2006 0001643 103.7618 256.3695 13.16595527225497
ONEWEB-0272             
1 48990U 21060Z   26060.50531338  .00000043  00000+0  79885-4 0  9998
2 48990  87.8997 250.2080 0001421 100.1778 259.9513 13.16595588225441
ONEWEB-0273             
1 48991U 21060AA  26060.45148498  .00000071  00000+0  15272-3 0  9994
2 48991  87.9003 250.2167 0001693  99.1040 261.0282 13.16593520225415
ONEWEB-0274             
1 48992U 21060AB  26060.47681718  .00000036  00000+0  61317-4 0  9997
2 48992  87.8987 250.2258 0001277  95.7710 264.3566 13.16592885225459
ONEWEB-0275             
1 48993U 21060AC  26060.46573251  .00000051  00000+0  10083-3 0  9999
2 48993  87.8999 250.2064 0001543  96.9891 263.1415 13.16592809225385
ONEWEB-0276             
1 48994U 21060AD  26060.49898727  .00000015  00000+0  64312-5 0  9997
2 48994  87.8999 250.2000 0001800  96.0120 264.1216 13.16592771225409
ONEWEB-0277             
1 48995U 21060AE  26060.51160294  .00000116  00000+0  26904-3 0  9997
2 48995  87.8990 250.2136 0001691  99.1155 261.0168 13.16598327225394
ONEWEB-0278             
1 48996U 21060AF  26060.50214736  .00000050  00000+0  96008-4 0  9998
2 48996  87.9001 250.1960 0001783  87.5733 272.5602 13.16593340225523
ONEWEB-0279             
1 48997U 21060AG  26060.51006311  .00000106  00000+0  24420-3 0  9998
2 48997  87.9002 250.1937 0001524 104.3664 255.7636 13.16592853225453
ONEWEB-0280             
1 48998U 21060AH  26060.52511742  .00000077  00000+0  16753-3 0  9996
2 48998  87.9002 250.1956 0001983  97.4156 262.7201 13.16593989225392
ONEWEB-0281             
1 48999U 21060AJ  26060.53064796  .00000044  00000+0  81017-4 0  9990
2 48999  87.8998 250.1889 0001486  92.5592 267.5709 13.16592886225468
