OBJECT_NAME,OBJECT_ID,EPOCH,MEAN_MOTION,ECCENTRICITY,INCLINATION,RA_OF_ASC_NODE,ARG_OF_PERICENTER,MEAN_ANOMALY,EPHEMERIS_TYPE,CLASSIFICATION_TYPE,NORAD_CAT_ID,ELEMENT_SET_NO,REV_AT_EPOCH,BSTAR,MEAN_MOTION_DOT,MEAN_MOTION_DDOT
ONEWEB-0249,2021-060A,2026-03-01T12:24:45.864000,13.16593300,.0001754,87.8999,250.1988,96.8608,263.2723,0,U,48967,999,22544,.40941E-3,.169E-5,0
ONEWEB-0250,2021-060B,2026-03-01T11:07:54.807456,13.25827068,.0002701,87.8997,248.3161,91.6750,268.4696,0,U,48968,999,22594,.25881E-3,.127E-5,0
ONEWEB-0252,2021-060D,2026-03-01T11:19:46.644096,13.16593331,.0001394,87.8999,250.2009,96.0741,264.0549,0,U,48970,999,22548,-.96757E-4,-.24E-6,0
ONEWEB-0253,2021-060E,2026-03-01T11:03:49.084128,13.16593289,.000164,87.8999,250.2084,99.5868,260.5448,0,U,48971,999,22541,-.15175E-4,.7E-7,0
ONEWEB-0254,2021-060F,2026-03-01T11:17:29.818464,13.16593004,.0001865,87.9003,250.2011,103.3798,256.7541,0,U,48972,999,22541,.61816E-4,.36E-6,0
ONEWEB-0255,2021-060G,2026-03-01T12:12:13.572288,13.16593369,.0001728,87.8998,250.2030,100.9377,259.1948,0,U,48973,999,22549,.32755E-3,.138E-5,0
ONEWEB-0256,2021-060H,2026-03-01T11:00:24.252192,13.16593202,.0001516,87.9001,250.2199,91.1570,268.9734,0,U,48974,999,22545,.10885E-3,.54E-6,0
ONEWEB-0257,2021-060J,2026-03-01T11:47:08.098944,13.16592949,.00016,87.8998,250.1974,99.9621,260.1690,0,U,48975,999,22541,.12201E-3,.59E-6,0
ONEWEB-0258,2021-060K,2026-03-01T11:49:25.301280,13.16592770,.0001707,87.8997,250.2085,93.4479,266.6847,0,U,48976,999,22542,.73467E-4,.41E-6,0
ONEWEB-0259,2021-060L,2026-03-01T11:40:17.558976,13.16593085,.0001727,87.9001,250.2085,98.7433,261.3893,0,U,48977,999,22545,-.6942E-4,-.14E-6,0
ONEWEB-0260,2021-060M,2026-03-01T11:27:45.192096,13.16593586,.0001191,87.8999,250.2163,90.7011,269.4256,0,U,48978,999,22543,.34401E-4,.26E-6,0
ONEWEB-0261,2021-060N,2026-03-01T12:33:48.148416,13.16609548,.0001683,87.8990,250.2079,109.0932,251.0381,0,U,48979,999,22549,-.62113E-2,-.2362E-4,0
ONEWEB-0262,2021-060P,2026-03-01T12:05:22.790400,13.16592703,.000191,87.8999,250.1932,98.3508,261.7839,0,U,48980,999,22545,.27551E-3,.118E-5,0
ONEWEB-0263,2021-060Q,2026-03-01T11:01:31.795392,13.16592954,.0001712,87.9001,250.2134,107.1803,252.9515,0,U,48981,999,22541,.33454E-4,.26E-6,0
ONEWEB-0264,2021-060R,2026-03-01T11:55:05.972160,13.16595610,.000141,87.8997,250.2099,100.3623,259.7667,0,U,48982,999,22542,.38369E-3,.16E-5,0
ONEWEB-0266,2021-060T,2026-03-01T12:25:52.817952,13.16596080,.0001777,87.9001,250.1950,92.3837,267.7497,0,U,48984,999,22541,.31815E-3,.134E-5,0
ONEWEB-0267,2021-060U,2026-03-01T10:52:24.553344,13.16592991,.0001585,87.9001,250.2045,101.6270,258.5039,0,U,48985,999,22541,.16502E-3,.76E-6,0
ONEWEB-0268,2021-060V,2026-03-01T11:56:15.575136,13.16592854,.0001548,87.8998,250.2054,94.2144,265.9164,0,U,48986,999,22568,-.50186E-4,-.6E-7,0
ONEWEB-0269,2021-060W,2026-03-01T11:28:53.739264,13.16592759,.0001498,87.8988,250.2237,87.7552,272.3751,0,U,48987,999,22545,.81279E-4,.44E-6,0
ONEWEB-0270,2021-060X,2026-03-01T11:53:58.815168,13.16593081,.0001851,87.9000,250.2075,105.5124,254.6211,0,U,48988,999,22549,-.25942E-4,.3E-7,0
ONEWEB-0271,2021-060Y,2026-03-01T11:35:44.884032,13.16595527,.0001643,87.8999,250.2006,103.7618,256.3695,0,U,48989,999,22549,.75463E-4,.42E-6,0
ONEWEB-0272,2021-060Z,2026-03-01T12:07:39.076032,13.16595588,.0001421,87.8997,250.2080,100.1778,259.9513,0,U,48990,999,22544,.79885E-4,.43E-6,0
ONEWEB-0273,2021-060AA,2026-03-01T10:50:08.302272,13.16593520,.0001693,87.9003,250.2167,99.1040,261.0282,0,U,48991,999,22541,.15272E-3,.71E-6,0
ONEWEB-0274,2021-060AB,2026-03-01T11:26:37.004352,13.16592885,.0001277,87.8987,250.2258,95.7710,264.3566,0,U,48992,999,22545,.61317E-4,.36E-6,0
ONEWEB-0275,2021-060AC,2026-03-01T11:10:39.288864,13.16592809,.0001543,87.8999,250.2064,96.9891,263.1415,0,U,48993,999,22538,.10083E-3,.51E-6,0
ONEWEB-0276,2021-060AD,2026-03-01T11:58:32.500128,13.16592771,.00018,87.8999,250.2000,96.0120,264.1216,0,U,48994,999,22540,.64312E-5,.15E-6,0
ONEWEB-0277,2021-060AE,2026-03-01T12:16:42.494016,13.16598327,.0001691,87.8990,250.2136,99.1155,261.0168,0,U,48995,999,22539,.26904E-3,.116E-5,0
ONEWEB-0278,2021-060AF,2026-03-01T12:03:05.531904,13.16593340,.0001783,87.9001,250.1960,87.5733,272.5602,0,U,48996,999,22552,.96008E-4,.5E-6,0
ONEWEB-0279,2021-060AG,2026-03-01T12:14:29.452704,13.16592853,.0001524,87.9002,250.1937,104.3664,255.7636,0,U,48997,999,22545,.2442E-3,.106E-5,0
ONEWEB-0280,2021-060AH,2026-03-01T12:36:10.145088,13.16593989,.0001983,87.9002,250.1956,97.4156,262.7201,0,U,48998,999,22539,.16753E-3,.77E-6,0
ONEWEB-0281,2021-060AJ,2026-03-01T12:44:07.983744,13.16592886,.0001486,87.8998,250.1889,92.5592,267.5709,0,U,48999,999,22546,.81017E-4,.44E-6,0
